NORAD_CAT_ID,OBJECT_NAME,OBJECT_TYPE,EPOCH,MEAN_MOTION,ECCENTRICITY,INCLINATION,RA_OF_ASC_NODE,ARG_OF_PERICENTER,MEAN_ANOMALY,BSTAR,MEAN_MOTION_DOT,MEAN_MOTION_DDOT,TLE_LINE0,TLE_LINE1,TLE_LINE2,SEMIMAJOR_AXIS,PERIOD,APOGEE,PERIGEE,DECAYED
53287.0,STARLINK-4107,PAYLOAD,2024-02-17 18:06:04,15.08834972,0.0001464,53.2177,315.2,100.5569,259.5588,4.6365e-05,4.5e-06,0.0,0 STARLINK-4107,1 53287U 22086AX  24048.75422246  .00000450  00000-0  46365-4 0  9990,2 53287  53.2177 315.2000 0001464 100.5569 259.5588 15.08834972 87660,6917.896,95.438,540.774,538.748,0.0
53287.0,STARLINK-4107,PAYLOAD,2024-02-17 22:52:14,15.0883707,0.0001614,53.218,314.3086,98.8067,261.3108,-1.4181e-05,-5.14e-06,0.0,0 STARLINK-4107,1 53287U 22086AX  24048.95294295 -.00000514  00000-0 -14181-4 0  9997,2 53287  53.2180 314.3086 0001614  98.8067 261.3108 15.08837070 87859,6917.889,95.438,540.871,538.638,0.0
53287.0,STARLINK-4107,PAYLOAD,2024-02-18 09:59:55,15.08843655,0.0001298,53.218,312.2272,89.2191,270.895,-6.3585e-05,-1.3e-05,0.0,0 STARLINK-4107,1 53287U 22086AX  24049.41661965 -.00001300  00000-0 -63585-4 0  9997,2 53287  53.2180 312.2272 0001298  89.2191 270.8950 15.08843655 87927,6917.869,95.437,540.632,538.836,0.0
53287.0,STARLINK-4107,PAYLOAD,2024-02-18 22:43:00,15.08840733,0.0001393,53.2178,309.847,101.6418,258.4731,0.00011928,1.611e-05,0.0,0 STARLINK-4107,1 53287U 22086AX  24049.94653745  .00001611  00000-0  11928-3 0  9998,2 53287  53.2178 309.8470 0001393 101.6418 258.4731 15.08840733 88006,6917.878,95.438,540.707,538.779,0.0
53287.0,STARLINK-4107,PAYLOAD,2024-02-19 03:29:09,15.08853982,0.0001409,53.2173,308.9561,98.8998,261.2153,0.00011581,1.556e-05,0.0,0 STARLINK-4107,1 53287U 22086AX  24050.14524919  .00001556  00000-0  11581-3 0  9995,2 53287  53.2173 308.9561 0001409  98.8998 261.2153 15.08853982 87874,6917.838,95.437,540.677,538.728,0.0
53287.0,STARLINK-4107,PAYLOAD,2024-02-19 09:50:42,15.08840786,0.0001265,53.2161,307.7638,88.3537,271.76,0.0001212,1.642e-05,0.0,0 STARLINK-4107,1 53287U 22086AX  24050.41021762  .00001642  00000-0  12120-3 0  9999,2 53287  53.2161 307.7638 0001265  88.3537 271.7600 15.08840786 87912,6917.878,95.438,540.618,538.868,0.0
53287.0,STARLINK-4107,PAYLOAD,2024-02-19 22:33:49,15.08827538,0.0001975,53.2185,305.3907,98.7841,261.3375,3.4135e-05,2.55e-06,0.0,0 STARLINK-4107,1 53287U 22086AX  24050.94015271  .00000255  00000-0  34135-4 0  9995,2 53287  53.2185 305.3907 0001975  98.7841 261.3375 15.08827538 88153,6917.918,95.438,541.15,538.417,0.0
53287.0,STARLINK-4107,PAYLOAD,2024-02-20 09:41:30,15.08837448,0.0001578,53.2188,303.3093,98.3114,261.8057,-5.5764e-07,-2.97e-06,0.0,0 STARLINK-4107,1 53287U 22086AX  24051.40382887 -.00000297  00000-0 -55764-6 0  9998,2 53287  53.2188 303.3093 0001578  98.3114 261.8057 15.08837448 88061,6917.888,95.438,540.845,538.662,0.0
53287.0,STARLINK-4107,PAYLOAD,2024-02-20 22:24:35,15.08849606,0.0001545,53.218,300.9311,105.3894,254.7269,8.7728e-05,1.109e-05,0.0,0 STARLINK-4107,1 53287U 22086AX  24051.93373926  .00001109  00000-0  87728-4 0  9994,2 53287  53.2180 300.9311 0001545 105.3894 254.7269 15.08849606 88309,6917.851,95.437,540.785,538.647,0.0
53287.0,STARLINK-4107,PAYLOAD,2024-02-20 23:59:58,15.08851003,0.0001518,53.218,300.6338,105.1601,254.9559,0.00010569,1.395e-05,0.0,0 STARLINK-4107,1 53287U 22086AX  24051.99997797  .00001395  00000-0  10569-3 0  9993,2 53287  53.2180 300.6338 0001518 105.1601 254.9559 15.08851003 88150,6917.847,95.437,540.762,538.662,0.0
53287.0,STARLINK-4107,PAYLOAD,2024-02-21 09:32:16,15.08850482,0.0001375,53.217,298.8448,86.9439,273.171,3.6168e-05,2.88e-06,0.0,0 STARLINK-4107,1 53287U 22086AX  24052.39741851  .00000288  00000-0  36168-4 0  9990,2 53287  53.2170 298.8448 0001375  86.9439 273.1710 15.08850482 88371,6917.848,95.437,540.665,538.762,0.0
53287.0,STARLINK-4107,PAYLOAD,2024-02-21 22:15:22,15.08833826,0.0001456,53.217,296.4695,89.4596,270.6563,0.00016129,2.279e-05,0.0,0 STARLINK-4107,1 53287U 22086AX  24052.92734865  .00002279  00000-0  16129-3 0  9992,2 53287  53.2170 296.4695 0001456  89.4596 270.6563 15.08833826 88451,6917.899,95.438,540.772,538.757,0.0
53287.0,STARLINK-4107,PAYLOAD,2024-02-21 23:50:45,15.08840059,0.0001418,53.2169,296.1713,88.2031,271.9123,0.00011996,1.622e-05,0.0,0 STARLINK-4107,1 53287U 22086AX  24052.99358533  .00001622  00000-0  11996-3 0  9991,2 53287  53.2169 296.1713 0001418  88.2031 271.9123 15.08840059 88302,6917.88,95.438,540.726,538.764,0.0
53287.0,STARLINK-4107,PAYLOAD,2024-02-22 22:06:09,15.08843595,0.0001421,53.2175,292.0051,91.7277,268.3878,3.3752e-05,2.49e-06,0.0,0 STARLINK-4107,1 53287U 22086AX  24053.92094363  .00000249  00000-0  33752-4 0  9992,2 53287  53.2175 292.0051 0001421  91.7277 268.3878 15.08843595 88602,6917.869,95.437,540.717,538.751,0.0
53287.0,STARLINK-4107,PAYLOAD,2024-02-23 09:13:51,15.08841787,0.0001342,53.2178,289.9234,90.5513,269.5633,2.1034e-05,4.7e-07,0.0,0 STARLINK-4107,1 53287U 22086AX  24054.38462412  .00000047  00000-0  21034-4 0  9993,2 53287  53.2178 289.9234 0001342  90.5513 269.5633 15.08841787 88518,6917.875,95.437,540.668,538.812,0.0
53287.0,STARLINK-4107,PAYLOAD,2024-02-23 21:56:57,15.08834661,0.0001305,53.2166,287.546,88.0576,272.0566,2.9579e-05,1.83e-06,0.0,0 STARLINK-4107,1 53287U 22086AX  24054.91454914  .00000183  00000-0  29579-4 0  9993,2 53287  53.2166 287.5460 0001305  88.0576 272.0566 15.08834661 88753,6917.897,95.438,540.664,538.859,0.0
53287.0,STARLINK-4107,PAYLOAD,2024-02-24 01:07:42,15.08841092,0.0001513,53.2169,286.9496,92.7041,267.4124,1.9312e-05,1.9e-07,0.0,0 STARLINK-4107,1 53287U 22086AX  24055.04702527  .00000019  00000-0  19312-4 0  9996,2 53287  53.2169 286.9496 0001513  92.7041 267.4124 15.08841092 88774,6917.877,95.437,540.789,538.695,0.0
53287.0,STARLINK-4107,PAYLOAD,2024-02-24 21:47:43,15.08848061,0.0001529,53.2161,283.0847,91.7159,268.4009,3.4093e-05,2.55e-06,0.0,0 STARLINK-4107,1 53287U 22086AX  24055.90814143  .00000255  00000-0  34093-4 0  9994,2 53287  53.2161 283.0847 0001529  91.7159 268.4009 15.08848061 88901,6917.856,95.437,540.778,538.663,0.0
53287.0,STARLINK-4107,PAYLOAD,2024-02-25 00:58:29,15.08852443,0.0001562,53.2159,282.4899,90.4934,269.6237,-5.4147e-06,-3.74e-06,0.0,0 STARLINK-4107,1 53287U 22086AX  24056.04061928 -.00000374  00000-0 -54147-5 0  9992,2 53287  53.2159 282.4899 0001562  90.4934 269.6237 15.08852443 88761,6917.842,95.437,540.788,538.627,0.0
53287.0,STARLINK-4107,PAYLOAD,2024-02-25 20:03:07,15.08840302,0.0001486,53.2167,278.9211,90.2008,269.9154,0.00011307,1.512e-05,0.0,0 STARLINK-4107,1 53287U 22086AX  24056.83550369  .00001512  00000-0  11307-3 0  9993,2 53287  53.2167 278.9211 0001486  90.2008 269.9154 15.08840302 88888,6917.879,95.438,540.772,538.716,0.0
53287.0,STARLINK-4107,PAYLOAD,2024-02-25 21:38:30,15.08839113,0.0001394,53.2165,278.6224,93.1658,266.9493,0.00022261,3.257e-05,0.0,0 STARLINK-4107,1 53287U 22086AX  24056.90174284  .00003257  00000-0  22261-3 0  9998,2 53287  53.2165 278.6224 0001394  93.1658 266.9493 15.08839113 89059,6917.883,95.438,540.712,538.784,0.0
53287.0,STARLINK-4107,PAYLOAD,2024-02-26 00:49:16,15.08847782,0.0001341,53.2164,278.0274,87.9281,272.1865,0.00012317,1.673e-05,0.0,0 STARLINK-4107,1 53287U 22086AX  24057.03421831  .00001673  00000-0  12317-3 0  9997,2 53287  53.2164 278.0274 0001341  87.9281 272.1865 15.08847782 88919,6917.857,95.437,540.649,538.794,0.0
53287.0,STARLINK-4107,PAYLOAD,2024-02-26 15:07:46,15.08831231,0.0001175,53.2168,275.3504,86.7128,273.3999,-1.9849e-05,-6.04e-06,0.0,0 STARLINK-4107,1 53287U 22086AX  24057.63039371 -.00000604  00000-0 -19849-4 0  9990,2 53287  53.2168 275.3504 0001175  86.7128 273.3999 15.08831231 89162,6917.907,95.438,540.585,538.959,0.0
53287.0,STARLINK-4107,PAYLOAD,2024-02-26 19:53:55,15.08832448,0.00015,53.217,274.4579,98.8394,261.2768,-1.0331e-05,-4.52e-06,0.0,0 STARLINK-4107,1 53287U 22086AX  24057.82911329 -.00000452  00000-0 -10331-4 0  9991,2 53287  53.2170 274.4579 0001500  98.8394 261.2768 15.08832448 89035,6917.903,95.438,540.806,538.731,0.0
53287.0,STARLINK-4107,PAYLOAD,2024-02-26 21:29:18,15.08831179,0.0001338,53.2163,274.1601,87.3001,272.8144,-4.6201e-06,-3.61e-06,0.0,0 STARLINK-4107,1 53287U 22086AX  24057.89535464 -.00000361  00000-0 -46201-5 0  9995,2 53287  53.2163 274.1601 0001338  87.3001 272.8144 15.08831179 89202,6917.907,95.438,540.698,538.847,0.0
53287.0,STARLINK-4107,PAYLOAD,2024-02-27 07:01:37,15.08836446,0.0001364,53.2169,272.3782,88.0891,272.0258,1.6062e-05,-3.2e-07,0.0,0 STARLINK-4107,1 53287U 22086AX  24058.29279232 -.00000032  00000-0  16062-4 0  9993,2 53287  53.2169 272.3782 0001364  88.0891 272.0258 15.08836446 89268,6917.891,95.438,540.7,538.813,0.0
53287.0,STARLINK-4107,PAYLOAD,2024-02-27 19:44:42,15.08842369,0.0001268,53.2157,269.9997,89.2441,270.8697,3.985e-05,3.46e-06,0.0,0 STARLINK-4107,1 53287U 22086AX  24058.82270913  .00000346  00000-0  39850-4 0  9996,2 53287  53.2157 269.9997 0001268  89.2441 270.8697 15.08842369 89187,6917.873,95.437,540.615,538.861,0.0
53287.0,STARLINK-4107,PAYLOAD,2024-02-27 21:20:05,15.08844346,0.0001257,53.2157,269.7033,90.9726,269.141,6.7372e-05,7.85e-06,0.0,0 STARLINK-4107,1 53287U 22086AX  24058.88894740  .00000785  00000-0  67372-4 0  9999,2 53287  53.2157 269.7033 0001257  90.9726 269.1410 15.08844346 89359,6917.867,95.437,540.602,538.863,0.0
53287.0,STARLINK-4107,PAYLOAD,2024-02-28 06:52:23,15.08840421,0.0001281,53.2144,267.918,88.4965,271.6174,3.9319e-05,3.38e-06,0.0,0 STARLINK-4107,1 53287U 22086AX  24059.28638785  .00000338  00000-0  39319-4 0  9993,2 53287  53.2144 267.9180 0001281  88.4965 271.6174 15.08840421 89414,6917.879,95.438,540.63,538.858,0.0
53287.0,STARLINK-4107,PAYLOAD,2024-02-28 21:10:52,15.08840254,0.0001318,53.2145,265.2419,85.9587,274.1556,0.00017412,2.484e-05,0.0,0 STARLINK-4107,1 53287U 22086AX  24059.88255047  .00002484  00000-0  17412-3 0  9998,2 53287  53.2145 265.2419 0001318  85.9587 274.1556 15.08840254 89500,6917.88,95.438,540.656,538.833,0.0
